[{"OBJECT_NAME":"STARLINK-34727","OBJECT_ID":"2025-161L","EPOCH":"2026-03-09T21:16:53.775264","MEAN_MOTION":15.30191467,"ECCENTRICITY":0.00011386,"INCLINATION":53.1584,"RA_OF_ASC_NODE":293.0315,"ARG_OF_PERICENTER":82.1949,"MEAN_ANOMALY":277.9181,"EPHEMERIS_TYPE":0,"CLASSIFICATION_TYPE":"U","NORAD_CAT_ID":65025,"ELEMENT_SET_NO":999,"REV_AT_EPOCH":3538,"BSTAR":0.00045058397,"MEAN_MOTION_DOT":0.00013006,"MEAN_MOTION_DDOT":0},{"OBJECT_NAME":"CZ-4B DEB","OBJECT_ID":"2008-053J","EPOCH":"2026-03-09T11:59:22.469568","MEAN_MOTION":15.1637526,"ECCENTRICITY":0.00601661,"INCLINATION":97.7872,"RA_OF_ASC_NODE":170.5072,"ARG_OF_PERICENTER":304.792,"MEAN_ANOMALY":54.7659,"EPHEMERIS_TYPE":0,"CLASSIFICATION_TYPE":"U","NORAD_CAT_ID":35573,"ELEMENT_SET_NO":999,"REV_AT_EPOCH":91868,"BSTAR":0.0017688276,"MEAN_MOTION_DOT":0.00036031,"MEAN_MOTION_DDOT":0}]
